GLOBALSTAR M023         
1 25621U 99004A   26023.94557106 -.00000003  00000+0  56006-3 0  9991
2 25621  52.0107 101.2206 0009363 252.7482 278.7807 12.62515342243612
GLOBALSTAR M040         
1 25622U 99004B   26024.00615370 -.00000049  00000+0  30595-3 0  9993
2 25622  51.9920 105.5151 0001624 140.8846  30.2851 12.62027213243135
GLOBALSTAR M036         
1 25623U 99004C   26024.23382937 -.00000036  00000+0  68897-3 0  9991
2 25623  51.9993  17.6777 0010775 113.9168 258.5907 11.86617525205229
GLOBALSTAR M038         
1 25624U 99004D   26024.10559093 -.00000046  00000+0  40376-3 0  9990
2 25624  51.9960 155.3439 0002641 137.9024  32.5081 12.32539754229610
GLOBALSTAR M022         
1 25649U 99012A   26024.33330115 -.00000097  00000+0 -12043-3 0  9990
2 25649  52.0049  49.7194 0002549 241.6556 130.3533 12.02509025202986
GLOBALSTAR M041         
1 25650U 99012B   26024.06249501 -.00000060  00000+0  32258-3 0  9999
2 25650  52.0034 298.6444 0001980  48.4257 311.6749 11.96683255204721
GLOBALSTAR M046         
1 25651U 99012C   26024.16535688 -.00000138  00000+0 -54054-3 0  9990
2 25651  52.0081 352.2451 0002031 343.9476  29.0230 12.09418384210404
GLOBALSTAR M037         
1 25652U 99012D   26024.32964888 -.00000047  00000+0  31568-3 0  9990
2 25652  51.9979 230.5881 0001642 350.8987 180.5062 12.62460343239201
